OBJECT_NAME,OBJECT_ID,EPOCH,MEAN_MOTION,ECCENTRICITY,INCLINATION,RA_OF_ASC_NODE,ARG_OF_PERICENTER,MEAN_ANOMALY,EPHEMERIS_TYPE,CLASSIFICATION_TYPE,NORAD_CAT_ID,ELEMENT_SET_NO,REV_AT_EPOCH,BSTAR,MEAN_MOTION_DOT,MEAN_MOTION_DDOT
SUPERVIEW-1 03,2018-002A,2026-05-18T04:28:32.537280,15.38260536,.0046212,97.3134,223.0939,289.2020,70.4228,0,U,43099,999,46375,.24187E-3,.9371E-4,0
CARTOSAT-2F,2018-004A,2026-05-18T04:10:41.158272,15.19212468,.0001568,97.4810,198.0971,46.8483,313.2882,0,U,43111,999,46277,.31346E-4,.592E-5,0
LKW-3,2018-006A,2026-05-18T04:42:19.101888,15.34615199,.0004082,97.6584,297.6191,66.8806,293.2866,0,U,43146,999,46411,.16896E-3,.5582E-4,0
ASNARO-2,2018-007A,2026-05-18T03:33:58.669344,15.22430883,.0001768,97.3981,145.5435,92.2239,267.9200,0,U,43152,999,46284,.23597E-3,.5387E-4,0
JILIN-1 07,2018-008E,2026-05-18T05:24:57.369600,15.34183187,.0009203,97.1784,158.9632,153.8045,206.3666,0,U,43159,999,46040,.16331E-3,.5332E-4,0
JILIN-1 08,2018-008F,2026-05-18T04:58:52.711392,15.33292885,.0006583,97.1814,158.2912,163.6453,196.5004,0,U,43160,999,46035,.13874E-3,.439E-4,0
LEMUR-2-KADI,2018-014E,2026-05-17T12:58:32.693088,15.87572820,.0004897,97.4482,67.1560,113.0665,247.1123,0,U,43184,999,45621,.11087E-2,.302412E-2,0
S-NET D,2018-014G,2026-05-17T15:33:08.594496,15.16357646,.00098838,97.5390,42.6333,118.4280,241.7950,0,U,43186,999,45413,.16237888E-3,.3086E-4,0
S-NET B,2018-014H,2026-05-18T04:28:59.435328,15.16331281,.0010571,97.5392,43.1542,113.2495,246.9852,0,U,43187,999,45421,.15802E-3,.2999E-4,0
S-NET A,2018-014J,2026-05-18T04:11:56.620032,15.16367734,.0010461,97.5403,43.3457,113.7752,246.4579,0,U,43188,999,45421,.15825E-3,.3007E-4,0
S-NET C,2018-014K,2026-05-17T23:49:15.665088,15.16322339,.00119158,97.5421,43.2344,108.7101,251.5426,0,U,43189,999,45273,.17913487E-3,.341E-4,0
PAZ,2018-020A,2026-05-18T04:52:02.058240,15.19148436,.000166,97.4455,146.0147,88.5902,271.5523,0,U,43215,999,45645,.56126E-4,.1112E-4,0
GOES 17,2018-022A,2026-05-18T03:56:38.747040,1.00271591,.0000357,0.8625,86.1129,313.7102,165.7086,0,U,43226,999,3012,0,-.178E-5,0
LKW-4,2018-025A,2026-05-18T04:58:30.586080,15.59831547,.0002941,97.6334,306.7942,71.8926,288.2650,0,U,43236,999,45535,.31377E-3,.25109E-3,0
ZHUHAI-1 OVS-02,2018-040B,2026-05-18T04:12:36.090144,15.24588848,.0004249,97.0401,157.1924,36.2736,323.8790,0,U,43440,999,44814,.20302E-3,.4939E-4,0
ZHUHAI-1 OHS-02,2018-040C,2026-05-18T04:14:49.483968,15.25407003,.0008573,97.0387,164.1036,350.6144,9.4933,0,U,43441,999,10970,.21517E-3,.5373E-4,0
GAOFEN-6,2018-048A,2026-05-18T04:29:27.276000,14.76591696,.0010499,97.7776,201.9674,273.0084,86.9925,0,U,43484,999,42896,.23119E-4,.112E-5,0
LUOJIA-1 01,2018-048B,2026-05-18T04:00:27.999936,14.87160447,.0008219,97.8107,216.8384,211.8593,148.2127,0,U,43485,999,42975,.17842E-3,.1551E-4,0
PAKTES 1A,2018-056A,2026-05-18T04:00:04.231296,14.98918116,.0021576,98.1223,293.3814,206.4489,153.5633,0,U,43529,999,42742,.14607E-3,.1708E-4,0
PRSS-1,2018-056B,2026-05-18T03:26:58.646112,14.81936856,.0001838,97.7834,206.8440,92.7059,267.4365,0,U,43530,999,42398,.10044E-3,.745E-5,0
HAIYANG-1C,2018-068A,2026-05-18T04:12:51.829632,14.34168925,.0010915,98.5202,210.9153,177.1575,182.9674,0,U,43609,999,40278,.54935E-4,.11E-5,0
SSTL S1-4,2018-071A,2026-05-18T04:38:49.868736,14.96176169,.0001291,97.5068,11.0495,77.7630,282.3736,0,U,43618,999,41845,.10737E-3,.1155E-4,0
HAIYANG-2B,2018-081A,2026-05-18T04:54:29.873952,13.79306932,.0001559,99.3289,147.4125,46.3449,313.7832,0,U,43655,999,38079,.10725E-3,.66E-6,0
CZ-4B R/B,2018-081B,2026-05-18T04:59:04.299360,14.31852345,.0204713,99.3692,53.7407,353.4269,6.4234,0,U,43656,999,39501,.47039E-4,.99E-6,0
CFOSAT,2018-083A,2026-05-18T04:49:55.198848,15.16499310,.0001593,97.3609,143.6155,61.7518,298.3876,0,U,43662,999,41789,.10566E-3,.1993E-4,0
TEN-KOH,2018-084G,2026-05-18T02:17:51.585216,15.02785380,.0008799,98.0751,329.1950,214.5428,145.5225,0,U,43677,999,41164,.81106E-4,.1019E-4,0
DIWATA-2B,2018-084H,2026-05-18T03:48:41.008608,15.00294142,.0011753,98.1104,333.0774,274.3668,85.6212,0,U,43678,999,41171,.17447E-3,.2123E-4,0
STARS-AO,2018-084J,2026-05-18T01:24:33.816672,15.16689096,.0000632,98.0527,350.1770,260.7693,99.3467,0,U,43679,999,41290,.23329E-3,.4494E-4,0
AUTCUBE 2,2018-084K,2026-05-18T00:17:52.339776,15.09863675,.0010013,98.0729,342.5889,138.5097,221.6892,0,U,43681,999,41237,.13653E-3,.2141E-4,0
METOP-C,2018-087A,2026-05-18T03:40:45.920928,14.21503219,.000044,98.6659,198.3030,144.2940,215.8267,0,U,43689,999,39056,.52258E-4,.71E-6,0
ES'HAIL 2,2018-090A,2026-05-18T01:15:38.668032,1.00269071,.0001197,0.0012,221.0829,223.8348,195.5476,0,U,43700,999,2737,0,.149E-5,0
MOHAMMED VI-B,2018-095A,2026-05-18T04:01:02.806176,14.77075535,.0001252,97.9568,210.9038,82.4107,277.7245,0,U,43717,999,40375,.12323E-3,.819E-5,0
HYSIS,2018-096A,2026-05-18T03:59:02.279040,14.78627932,.0000988,97.9855,205.1462,114.1038,246.0276,0,U,43719,999,40298,.16587E-3,.1163E-4,0
COSMOS 2530 (RODNIK-S 16),2018-097A,2026-05-18T04:33:53.401824,12.42880700,.0020794,82.5157,240.8943,102.0756,258.2655,0,U,43751,999,33856,.61669E-3,.96E-6,0
COSMOS 2531 (RODNIK-S 17),2018-097B,2026-05-18T05:07:02.175168,12.42912197,.001793,82.5202,241.9285,119.8208,240.4657,0,U,43752,999,33858,.52463E-3,.83E-6,0
COSMOS 2532 (RODNIK-S 18),2018-097C,2026-05-18T05:47:38.590368,12.42909151,.0019293,82.5147,240.7105,121.8474,238.4487,0,U,43753,999,33855,.10163E-2,.151E-5,0
MINXSS-2,2018-099A,2026-05-18T04:26:50.580960,15.44800496,.0006951,97.4546,213.6393,25.4631,334.6959,0,U,43758,999,40949,.41937E-3,.19587E-3,0
SIRION PATHFINDER-2,2018-099B,2026-05-18T01:14:24.504000,15.14249074,.0009939,97.4272,187.8285,52.5691,307.6444,0,U,43759,999,40806,.18442E-3,.331E-4,0
AISTECHSAT 2,2018-099L,2026-05-18T02:36:10.694304,15.15113241,.0005937,97.4313,186.8046,58.0248,302.1561,0,U,43768,999,40772,.19317E-3,.3554E-4,0
FOX-1CLIFF (AO-95),2018-099N,2026-05-18T02:49:41.685312,15.26003786,.0010481,97.4401,198.4882,96.2456,263.9976,0,U,43770,999,40863,.33132E-3,.8462E-4,0
2018-099Q,2018-099Q,2026-05-18T04:27:10.658592,15.74675188,.0004157,97.4188,217.3409,245.1277,114.9555,0,U,43772,999,40992,.84283E-3,.124683E-2,0
RANGE-A,2018-099R,2026-05-18T02:11:09.703392,15.13102014,.0012139,97.3985,181.5536,92.4687,267.7934,0,U,43773,999,40794,.17074E-3,.2964E-4,0
SNUSAT-2,2018-099AA,2026-05-18T01:58:39.868032,15.21336926,.0011344,97.4077,191.9365,49.5552,310.6672,0,U,43782,999,40845,.27335E-3,.6062E-4,0
SNUGLITE,2018-099AC,2026-05-18T03:03:21.433824,15.26465103,.0003883,97.3887,192.7159,61.0714,299.0913,0,U,43784,999,40873,.30195E-3,.7803E-4,0
ITASAT,2018-099AE,2026-05-18T02:40:27.874272,15.18632515,.0014405,97.4047,190.2292,98.0854,262.2015,0,U,43786,999,40834,.23926E-3,.4899E-4,0
EAGLET-I,2018-099AJ,2026-05-18T02:09:00.874080,15.12686203,.0012874,97.4250,188.5575,91.0250,269.2456,0,U,43790,999,40778,.18752E-3,.3224E-4,0
ESEO,2018-099AL,2026-05-18T01:05:39.636096,15.04148364,.0013599,97.4001,176.7227,78.8176,281.4578,0,U,43792,999,40727,.99014E-4,.1318E-4,0
THEA,2018-099AQ,2026-05-18T03:20:58.643232,15.33918733,.0007849,97.4456,207.5624,43.8738,316.3127,0,U,43796,999,40808,.39068E-3,.12757E-3,0
ASTROCAST 0.1,2018-099AS,2026-05-18T05:05:21.508800,15.47438709,.0003525,97.4389,215.8225,335.5726,24.5356,0,U,43798,999,40979,.36541E-3,.18658E-3,0
JY1SAT (JO-97),2018-099AX,2026-05-18T03:18:12.434688,15.32623556,.0005852,97.4145,200.8886,34.7500,325.4123,0,U,43803,999,40902,.36543E-3,.11444E-3,0
SUOMI-100,2018-099AY,2026-05-18T03:33:47.628288,15.27665042,.0010521,97.4205,198.6673,36.1222,324.0726,0,U,43804,999,40883,.31287E-3,.84E-4,0
CENTAURI-1,2018-099BD,2026-05-18T02:40:49.564128,15.16026789,.0015794,97.4239,190.4809,75.6208,284.6777,0,U,43809,999,40794,.20407E-3,.3868E-4,0
GLOBAL-2,2018-099BG,2026-05-18T02:15:00.983232,15.08480375,.0004214,97.3582,175.8595,251.9668,108.1102,0,U,43812,999,40737,.11966E-3,.1805E-4,0
SEAHAWK-1,2018-099BQ,2026-05-18T02:25:56.157024,15.22266958,.0009629,97.3976,191.0542,63.0684,297.1535,0,U,43820,999,40795,.28318E-3,.6455E-4,0
SAUDISAT 5A,2018-102A,2026-05-18T04:03:40.516416,15.27712497,.0008355,97.3081,200.3329,233.5379,126.5091,0,U,43831,999,41109,.14533E-3,.3865E-4,0
SAUDISAT 5B,2018-102C,2026-05-18T04:38:19.390272,15.27986802,.0009001,97.3187,203.3718,236.6885,123.3494,0,U,43833,999,41121,.14066E-3,.377E-4,0
2018-102D,2018-102D,2026-05-18T04:02:19.264128,15.63203942,.0005481,97.3444,226.0468,168.9681,191.1698,0,U,43834,999,41255,.50418E-3,.46162E-3,0
ISAT,2018-111D,2026-05-17T13:12:30.754080,15.60023396,.000772,97.5910,70.5473,73.7422,286.4683,0,U,43879,999,40638,.55787E-3,.45224E-3,0
UWE-4,2018-111E,2026-05-18T00:51:41.251104,15.44143851,.0010522,97.5867,65.0854,78.7324,281.5105,0,U,43880,999,40612,.48105E-3,.22016E-3,0
D-STAR ONE (SPARROW),2018-111F,2026-05-17T19:06:00.163872,15.66523198,.00075564,97.6136,75.9540,100.0729,260.1383,0,U,43881,999,40660,.66192054E-3,.69386E-3,0
JILIN-1 09,2019-005B,2026-05-18T05:36:52.962048,15.20222379,.0002589,97.4725,233.4617,157.5740,202.5609,0,U,43943,999,40459,.14511E-3,.3076E-4,0
JILIN-1 10,2019-005E,2026-05-18T03:37:13.255104,15.25364325,.0008744,97.4768,236.9671,35.2450,324.9365,0,U,43946,999,40473,.15427E-3,.3821E-4,0
EGYPTSAT-A (MISRSAT-A),2019-008A,2026-05-18T04:07:22.397664,14.72269803,.0001254,98.0055,203.3741,80.7076,279.4273,0,U,44047,999,38882,.10467E-3,.612E-5,0
EMISAT,2019-018A,2026-05-18T04:52:55.697088,14.43672155,.0017483,98.4665,197.1643,310.8500,49.1174,0,U,44078,999,37573,.75565E-4,.213E-5,0
JILIN-1 GAOFEN 3A,2019-032C,2026-05-18T03:52:09.516000,15.31922281,.0003574,44.9726,162.0966,136.6246,223.4920,0,U,44312,999,38323,.21589E-3,.648E-4,0
WT 1B,2019-032G,2026-05-18T05:38:30.134400,15.26570824,.0007571,44.9723,224.3515,74.6751,285.4967,0,U,44316,999,38250,.31352E-3,.8075E-4,0
PROX-1,2019-036A,2026-05-17T18:59:46.762080,14.89835654,.00066679,23.9964,317.1700,41.5781,318.5224,0,U,44339,999,36893,.81066512E-3,.8263E-4,0
